DELTA 2 R/B(1)          
1 20453U 90008B   25353.66263112  .00031465  00000+0  49464-3 0  9994
2 20453  35.6080 335.8092 0111229 241.4379 117.5121 15.45752274913704
COSMOS 2058             
1 20465U 90010A   25353.77989596  .00003909  00000+0  23526-3 0  9996
2 20465  82.4695 126.1057 0008893 244.5566 115.4744 15.10536455930176
SL-14 R/B               
1 20466U 90010B   25353.96270914  .00000333  00000+0  37500-4 0  9991
2 20466  82.5019 342.2629 0019242 198.2636 161.7890 14.83477506916661
SL-14 R/B               
1 20511U 90018B   25353.90384644  .00000369  00000+0  43412-4 0  9998
2 20511  82.5215 297.6686 0016383   0.3373 359.7849 14.82053578910766
HST                     
1 20580U 90037B   25352.01685452  .00005621  00000+0  19130-3 0  9992
2 20580  28.4674 236.5696 0001951 306.2372  53.8043 15.28122531760808
SL-16 R/B               
1 20625U 90046B   25353.46168747 -.00000284  00000+0 -12211-3 0  9990
2 20625  70.9993 106.4053 0011991  61.3446 298.8881 14.14999291837043
COSMOS 2084             
1 20663U 90055A   25353.74370630  .00001876  00000+0  14443-3 0  9994
2 20663  62.7899 248.1277 0030593 175.6163 184.5211 15.05058322924288
SL-6 R/B(2)             
1 20666U 90055D   25353.88577609  .00001429  00000+0  11988-3 0  9992
2 20666  62.7810 165.1338 0013471 313.7550  46.2433 15.03103714926197
SL-8 R/B                
1 20775U 90078B   25353.86827554  .00013953  00000+0  43122-3 0  9993
2 20775  82.9047 322.9273 0370851 281.9111  74.0759 14.86203184797437
SL-8 R/B                
1 21088U 91006B   25353.93156440  .00000106  00000+0  91525-4 0  9997
2 21088  82.9420 229.3635 0021177 258.4327 111.6851 13.77491253753094
OKEAN-3                 
1 21397U 91039A   25353.60076446  .00002228  00000+0  15833-3 0  9991
2 21397  82.5178  54.4073 0013436 239.9462 120.0432 15.04163296852992
COSMOS 2151             
1 21422U 91042A   25353.89587958  .00001447  00000+0  11502-3 0  9991
2 21422  82.4962 160.6069 0011964 335.0255  25.0388 14.99711415851233
